[{"OBJECT_NAME":"OBJECT K","OBJECT_ID":"2024-092K","EPOCH":"2026-03-09T22:27:09.905184","MEAN_MOTION":15.32834875,"ECCENTRICITY":0.00087198,"INCLINATION":97.6413,"RA_OF_ASC_NODE":198.1023,"ARG_OF_PERICENTER":142.4952,"MEAN_ANOMALY":217.69,"EPHEMERIS_TYPE":0,"CLASSIFICATION_TYPE":"U","NORAD_CAT_ID":59809,"ELEMENT_SET_NO":999,"REV_AT_EPOCH":10001,"BSTAR":0.0007267688,"MEAN_MOTION_DOT":0.00023035,"MEAN_MOTION_DDOT":0},{"OBJECT_NAME":"STARLINK-32813","OBJECT_ID":"2025-022R","EPOCH":"2026-03-09T11:17:10.746528","MEAN_MOTION":15.30188357,"ECCENTRICITY":0.00013901,"INCLINATION":53.158,"RA_OF_ASC_NODE":130.8391,"ARG_OF_PERICENTER":88.053,"MEAN_ANOMALY":272.063,"EPHEMERIS_TYPE":0,"CLASSIFICATION_TYPE":"U","NORAD_CAT_ID":62869,"ELEMENT_SET_NO":999,"REV_AT_EPOCH":6186,"BSTAR":0.0010629446,"MEAN_MOTION_DOT":0.00031243,"MEAN_MOTION_DDOT":0}]
